{"type": "FeatureCollection", "features": [ {"type": "Feature", "properties": {"norad_id": 66827, "name": "STARLINK-35959", "group": "last-30-days", "lat": 67.44736746508083, "lon": -118.68747959882418, "alt_km": 401.643778687926, "timestamp": "2025-12-19T10:49:59.923332+00:00", "meta": {"OBJECT_NAME": "STARLINK-35959", "OBJECT_ID": "2025-280G", "EPOCH": "2025-12-18T22:00:00.999936", "MEAN_MOTION": 15.55799597, "ECCENTRICITY": 0.00037073, "INCLINATION": 69.9997, "RA_OF_ASC_NODE": 181.4904, "ARG_OF_PERICENTER": 266.8278, "MEAN_ANOMALY": 60.9078, "EPHEMERIS_TYPE": 0, "CLASSIFICATION_TYPE": "U", "NORAD_CAT_ID": 66827, "ELEMENT_SET_NO": 999, "REV_AT_EPOCH": 389, "BSTAR": -0.032977042, "MEAN_MOTION_DOT": -0.02005367, "MEAN_MOTION_DDOT": 0}, "tle": {"line1": "1 66827U 25280G   25352.91667824 -.02005367  00000+0 -32977-1 0  9999", "line2": "2 66827  69.9997 181.4904 0003707 266.8278  60.9078 15.55799597  3895"}}, "geometry": {"type": "Point", "coordinates": [-118.68747959882418, 67.44736746508083]}}, {"type": "Feature", "properties": {"norad_id": 66828, "name": "STARLINK-35982", "group": "last-30-days", "lat": 68.9134171367234, "lon": -109.14064994916303, "alt_km": 401.55662092212606, "timestamp": "2025-12-19T10:49:59.923343+00:00", "meta": {"OBJECT_NAME": "STARLINK-35982", "OBJECT_ID": "2025-280H", "EPOCH": "2025-12-18T22:00:00.999936", "MEAN_MOTION": 15.55799073, "ECCENTRICITY": 0.00037457, "INCLINATION": 69.9994, "RA_OF_ASC_NODE": 181.4858, "ARG_OF_PERICENTER": 267.6278, "MEAN_ANOMALY": 63.9413, "EPHEMERIS_TYPE": 0, "CLASSIFICATION_TYPE": "U", "NORAD_CAT_ID": 66828, "ELEMENT_SET_NO": 999, "REV_AT_EPOCH": 389, "BSTAR": -0.033002582, "MEAN_MOTION_DOT": -0.02006727, "MEAN_MOTION_DDOT": 0}, "tle": {"line1": "1 66828U 25280H   25352.91667824 -.02006727  00000+0 -33003-1 0  9992", "line2": "2 66828  69.9994 181.4858 0003745 267.6278  63.9413 15.55799073  3897"}}, "geometry": {"type": "Point", "coordinates": [-109.14064994916303, 68.9134171367234]}}, {"type": "Feature", "properties": {"norad_id": 66829, "name": "STARLINK-36084", "group": "last-30-days", "lat": 68.24771432482271, "lon": -114.07598436172896, "alt_km": 401.52915376241526, "timestamp": "2025-12-19T10:49:59.923355+00:00", "meta": {"OBJECT_NAME": "STARLINK-36084", "OBJECT_ID": "2025-280J", "EPOCH": "2025-12-18T22:00:00.999936", "MEAN_MOTION": 15.55797848, "ECCENTRICITY": 0.0003615, "INCLINATION": 69.9996, "RA_OF_ASC_NODE": 181.4878, "ARG_OF_PERICENTER": 268.5852, "MEAN_ANOMALY": 61.0707, "EPHEMERIS_TYPE": 0, "CLASSIFICATION_TYPE": "U", "NORAD_CAT_ID": 66829, "ELEMENT_SET_NO": 999, "REV_AT_EPOCH": 373, "BSTAR": -0.033066654, "MEAN_MOTION_DOT": -0.02047817, "MEAN_MOTION_DDOT": 0}, "tle": {"line1": "1 66829U 25280J   25352.91667824 -.02047817  00000+0 -33067-1 0  9998", "line2": "2 66829  69.9996 181.4878 0003615 268.5852  61.0707 15.55797848  3732"}}, "geometry": {"type": "Point", "coordinates": [-114.07598436172896, 68.24771432482271]}}, {"type": "Feature", "properties": {"norad_id": 66830, "name": "STARLINK-35881", "group": "last-30-days", "lat": 69.42820844785197, "lon": -103.93617727385445, "alt_km": 401.5477541186683, "timestamp": "2025-12-19T10:49:59.923365+00:00", "meta": {"OBJECT_NAME": "STARLINK-35881", "OBJECT_ID": "2025-280K", "EPOCH": "2025-12-18T22:00:00.999936", "MEAN_MOTION": 15.55798862, "ECCENTRICITY": 0.00038038, "INCLINATION": 69.9994, "RA_OF_ASC_NODE": 181.4828, "ARG_OF_PERICENTER": 267.4312, "MEAN_ANOMALY": 66.0541, "EPHEMERIS_TYPE": 0, "CLASSIFICATION_TYPE": "U", "NORAD_CAT_ID": 66830, "ELEMENT_SET_NO": 999, "REV_AT_EPOCH": 389, "BSTAR": -0.032953201, "MEAN_MOTION_DOT": -0.02004137, "MEAN_MOTION_DDOT": 0}, "tle": {"line1": "1 66830U 25280K   25352.91667824 -.02004137  00000+0 -32953-1 0  9991", "line2": "2 66830  69.9994 181.4828 0003803 267.4312  66.0541 15.55798862  3890"}}, "geometry": {"type": "Point", "coordinates": [-103.93617727385445, 69.42820844785197]}}, {"type": "Feature", "properties": {"norad_id": 66831, "name": "STARLINK-35788", "group": "last-30-days", "lat": 69.77672980064354, "lon": -98.59521749631108, "alt_km": 401.39127209293565, "timestamp": "2025-12-19T10:49:59.923375+00:00", "meta": {"OBJECT_NAME": "STARLINK-35788", "OBJECT_ID": "2025-280L", "EPOCH": "2025-12-18T22:00:00.999936", "MEAN_MOTION": 15.55825002, "ECCENTRICITY": 0.00034422, "INCLINATION": 69.9996, "RA_OF_ASC_NODE": 181.4816, "ARG_OF_PERICENTER": 268.9588, "MEAN_ANOMALY": 66.4396, "EPHEMERIS_TYPE": 0, "CLASSIFICATION_TYPE": "U", "NORAD_CAT_ID": 66831, "ELEMENT_SET_NO": 999, "REV_AT_EPOCH": 389, "BSTAR": -0.034008134, "MEAN_MOTION_DOT": -0.02101543, "MEAN_MOTION_DDOT": 0}, "tle": {"line1": "1 66831U 25280L   25352.91667824 -.02101543  00000+0 -34008-1 0  9994", "line2": "2 66831  69.9996 181.4816 0003442 268.9588  66.4396 15.55825002  3899"}}, "geometry": {"type": "Point", "coordinates": [-98.59521749631108, 69.77672980064354]}}, {"type": "Feature", "properties": {"norad_id": 66832, "name": "STARLINK-35768", "group": "last-30-days", "lat": 69.95971154378552, "lon": -93.04733516274793, "alt_km": 401.39601389374457, "timestamp": "2025-12-19T10:49:59.923401+00:00", "meta": {"OBJECT_NAME": "STARLINK-35768", "OBJECT_ID": "2025-280M", "EPOCH": "2025-12-18T22:00:00.999936", "MEAN_MOTION": 15.55826014, "ECCENTRICITY": 0.00034712, "INCLINATION": 69.9992, "RA_OF_ASC_NODE": 181.479, "ARG_OF_PERICENTER": 270.9498, "MEAN_ANOMALY": 66.3621, "EPHEMERIS_TYPE": 0, "CLASSIFICATION_TYPE": "U", "NORAD_CAT_ID": 66832, "ELEMENT_SET_NO": 999, "REV_AT_EPOCH": 389, "BSTAR": -0.034018631, "MEAN_MOTION_DOT": -0.02102217, "MEAN_MOTION_DDOT": 0}, "tle": {"line1": "1 66832U 25280M   25352.91667824 -.02102217  00000+0 -34019-1 0  9996", "line2": "2 66832  69.9992 181.4790 0003471 270.9498  66.3621 15.55826014  3896"}}, "geometry": {"type": "Point", "coordinates": [-93.04733516274793, 69.95971154378552]}}, {"type": "Feature", "properties": {"norad_id": 66833, "name": "STARLINK-35858", "group": "last-30-days", "lat": 69.96862886860458, "lon": -87.46955562105727, "alt_km": 401.6266137771281, "timestamp": "2025-12-19T10:49:59.923415+00:00", "meta": {"OBJECT_NAME": "STARLINK-35858", "OBJECT_ID": "2025-280N", "EPOCH": "2025-12-18T22:00:00.999936", "MEAN_MOTION": 15.55830387, "ECCENTRICITY": 0.0003738, "INCLINATION": 69.9997, "RA_OF_ASC_NODE": 181.4777, "ARG_OF_PERICENTER": 275.0728, "MEAN_ANOMALY": 64.1569, "EPHEMERIS_TYPE": 0, "CLASSIFICATION_TYPE": "U", "NORAD_CAT_ID": 66833, "ELEMENT_SET_NO": 999, "REV_AT_EPOCH": 389, "BSTAR": -0.034323216, "MEAN_MOTION_DOT": -0.02119512, "MEAN_MOTION_DDOT": 0}, "tle": {"line1": "1 66833U 25280N   25352.91667824 -.02119512  00000+0 -34323-1 0  9991", "line2": "2 66833  69.9997 181.4777 0003738 275.0728  64.1569 15.55830387  3890"}}, "geometry": {"type": "Point", "coordinates": [-87.46955562105727, 69.96862886860458]}}, {"type": "Feature", "properties": {"norad_id": 66834, "name": "STARLINK-35840", "group": "last-30-days", "lat": 69.80188616284433, "lon": -81.91206163799545, "alt_km": 401.64762464205523, "timestamp": "2025-12-19T10:49:59.923426+00:00", "meta": {"OBJECT_NAME": "STARLINK-35840", "OBJECT_ID": "2025-280P", "EPOCH": "2025-12-18T22:00:00.999936", "MEAN_MOTION": 15.55831398, "ECCENTRICITY": 0.00037595, "INCLINATION": 69.9997, "RA_OF_ASC_NODE": 181.4749, "ARG_OF_PERICENTER": 272.835, "MEAN_ANOMALY": 68.3083, "EPHEMERIS_TYPE": 0, "CLASSIFICATION_TYPE": "U", "NORAD_CAT_ID": 66834, "ELEMENT_SET_NO": 999, "REV_AT_EPOCH": 389, "BSTAR": -0.034280654, "MEAN_MOTION_DOT": -0.02117262, "MEAN_MOTION_DDOT": 0}, "tle": {"line1": "1 66834U 25280P   25352.91667824 -.02117262  00000+0 -34281-1 0  9995", "line2": "2 66834  69.9997 181.4749 0003759 272.8350  68.3083 15.55831398  3899"}}, "geometry": {"type": "Point", "coordinates": [-81.91206163799545, 69.80188616284433]}}, {"type": "Feature", "properties": {"norad_id": 66835, "name": "STARLINK-35890", "group": "last-30-days", "lat": 69.45702576647504, "lon": -76.4005646776363, "alt_km": 401.44424980051645, "timestamp": "2025-12-19T10:49:59.923436+00:00", "meta": {"OBJECT_NAME": "STARLINK-35890", "OBJECT_ID": "2025-280Q", "EPOCH": "2025-12-18T22:00:00.999936", "MEAN_MOTION": 15.55802571, "ECCENTRICITY": 0.00036795, "INCLINATION": 69.9997, "RA_OF_ASC_NODE": 181.4712, "ARG_OF_PERICENTER": 267.7913, "MEAN_ANOMALY": 75.2759, "EPHEMERIS_TYPE": 0, "CLASSIFICATION_TYPE": "U", "NORAD_CAT_ID": 66835, "ELEMENT_SET_NO": 999, "REV_AT_EPOCH": 389, "BSTAR": -0.033084838, "MEAN_MOTION_DOT": -0.02049199, "MEAN_MOTION_DDOT": 0}, "tle": {"line1": "1 66835U 25280Q   25352.91667824 -.02049199  00000+0 -33085-1 0  9990", "line2": "2 66835  69.9997 181.4712 0003679 267.7913  75.2759 15.55802571  3897"}}, "geometry": {"type": "Point", "coordinates": [-76.4005646776363, 69.45702576647504]}}, {"type": "Feature", "properties": {"norad_id": 66836, "name": "STARLINK-35838", "group": "last-30-days", "lat": 68.95341632817237, "lon": -71.18593250411249, "alt_km": 401.5058395723454, "timestamp": "2025-12-19T10:49:59.923446+00:00", "meta": {"OBJECT_NAME": "STARLINK-35838", "OBJECT_ID": "2025-280R", "EPOCH": "2025-12-18T22:00:00.999936", "MEAN_MOTION": 15.55801494, "ECCENTRICITY": 0.00037397, "INCLINATION": 69.9997, "RA_OF_ASC_NODE": 181.4685, "ARG_OF_PERICENTER": 267.3445, "MEAN_ANOMALY": 77.6387, "EPHEMERIS_TYPE": 0, "CLASSIFICATION_TYPE": "U", "NORAD_CAT_ID": 66836, "ELEMENT_SET_NO": 999, "REV_AT_EPOCH": 389, "BSTAR": -0.033040385, "MEAN_MOTION_DOT": -0.02046713, "MEAN_MOTION_DDOT": 0}, "tle": {"line1": "1 66836U 25280R   25352.91667824 -.02046713  00000+0 -33040-1 0  9991", "line2": "2 66836  69.9997 181.4685 0003739 267.3445  77.6387 15.55801494  3896"}}, "geometry": {"type": "Point", "coordinates": [-71.18593250411249, 68.95341632817237]}}]}